    CK24A010  2025 06 13.6981  3.875294  1.002379  353.3095  112.1356   94.4627  20250605   7.0  4.0  C/2024 A1 (ATLAS)                                        MPEC 2025-J92
    CK24A020  2024 04 28.8188  1.879465  0.941810  295.4977   78.1655  119.1148  20250605  12.5  4.0  C/2024 A2 (ATLAS)                                        MPC182881
    CK24B010  2024 10  7.7177  1.633797  1.001016   66.2165   79.1884   70.9030  20250605  13.0  4.0  C/2024 B1 (Lemmon)                                       MPEC 2025-J92
    CK24B020  2023 10  5.8888  4.078121  0.998039  130.3389  294.3851   99.8675  20250605  11.5  4.0  C/2024 B2 (Lemmon)                                       MPEC 2025-A40
    CK24C010  2024 08 31.0518  4.412871  0.582958   94.4878   83.8096   14.2269  20250605  11.5  4.0  C/2024 C1 (PANSTARRS)                                    MPEC 2025-J92
    CK24C020  2025 03 11.1415  8.991367  0.445858   87.5703   66.4453   27.2844  20250605   6.0  4.0  C/2024 C2 (PANSTARRS)                                    MPEC 2024-JU4
    CK24C030  2023 11  8.6870  6.712982  0.424612  159.6859  359.7063   22.4552  20250605   9.0  4.0  C/2024 C3 (PANSTARRS)                                    MPEC 2025-HB5
    CK24C040  2024 01 30.1904  1.470568  0.982384  321.5001  220.6724   79.2832  20250605  14.5  4.0  C/2024 C4 (ATLAS)                                        MPEC 2024-Q20
    CK24D010  2027 12  3.3812  6.693558  0.999255  125.7733  179.6623  132.4501  20250605   7.3  4.0  C/2024 D1 (Lemmon)                                       MPEC 2025-HB9
    CK24E010  2026 01 20.7601  0.565963  1.000069  243.6337  108.0803   75.2390  20250605   7.0  4.0  C/2024 E1 (Wierzchos)                                    MPEC 2025-J92
    CK24E020  2023 10 25.0601  7.694682  0.850678  358.1278  135.6530  155.6491  20250605   8.0  4.0  C/2024 E2 (Bok)                                          MPEC 2024-JU4
    PK24F010  2023 10 25.7697  1.859838  0.459977  229.5755  251.5413    7.0053  20250605  16.0  4.0  P/2024 F1 (PANSTARRS)                                    MPEC 2024-JU4
    CK24F020  2024 07 28.9791  3.967955  0.601105  112.8900  138.9402   13.7427  20250605  11.0  4.0  C/2024 F2 (PANSTARRS)                                    MPEC 2024-Q20
    PK24F09G  2024 05 20.3986  1.596497  0.509914  245.9330  253.0426    1.7312  20250605  14.0  4.0  P/2024 FG9 (Nanshan-Hahn)                                MPEC 2024-UA9
    CK24G010  2024 10 21.0733  3.930126  0.967828  128.2240   30.6051   95.3942  20250605  10.0  4.0  C/2024 G1 (Wierzchos)                                    MPEC 2025-J72
    CK24G020  2025 06 13.5328  5.348242  0.992719  328.7372  171.3964  122.1259  20250605   7.0  4.0  C/2024 G2 (ATLAS)                                        MPEC 2025-J92
    CK24G030  2025 01 13.4272  0.093547  1.000007  108.1258  220.3435  116.8473  20250605   9.0  4.0  C/2024 G3 (ATLAS)                                        MPEC 2025-A40
    CK24G040  2026 03 21.6221  4.900408  0.998460  131.4209  152.9825   33.0264  20250605   8.0  4.0  C/2024 G4 (PANSTARRS)                                    MPEC 2025-J92
    CK24G050  2024 09  7.0511  2.953023  0.994817  209.5784  316.3933   50.3869  20250605  13.0  4.0  C/2024 G5 (Leonard)                                      MPEC 2024-JC6
    CK24G060  2026 02 20.7654  6.429736  1.002180   23.4413  250.9518  120.4557  20250605   5.5  4.0  C/2024 G6 (ATLAS)                                        MPEC 2025-J92
    CK24G070  2025 02 10.1160  6.027667  1.001914  289.6572  191.9622  131.5156  20250605   7.0  4.0  C/2024 G7 (ATLAS)                                        MPEC 2025-J08
    AK24G080  2024 06 15.5858  1.172464  0.991727  249.1574   11.2484   97.4124  20250605  20.0  2.0  A/2024 G8                                                MPEC 2024-Q05
    PK24J010  2023 11 11.3017  2.636676  0.307716  200.3645  321.9389   13.1590  20250605  14.5  4.0  P/2024 J1 (PANSTARRS)                                    MPEC 2024-JU4
    CK24J020  2025 03 19.7843  1.810893  0.987709  143.1605  189.0592   79.2971  20250605  11.5  4.0  C/2024 J2 (Wierzchos)                                    MPC182882
    CK24J030  2026 11 25.3213  3.865133  1.000770   74.0888  285.9612   75.6398  20250605   5.0  4.0  C/2024 J3 (ATLAS)                                        MPEC 2025-J92
    CK24J040  2025 04 25.9996  5.695164  0.999103  127.8577   19.3057  117.5302  20250605   8.0  4.0  C/2024 J4 (Lemmon)                                       MPEC 2025-J92
    PK24K010  2024 05  8.9515  3.455521  0.495181  351.9291  251.6895    1.7862  20250605  13.5  4.0  P/2024 K1 (PANSTARRS)                                    MPEC 2024-LB4
    CK24L010  2025 04 23.1539  5.348148  0.533565  171.7955   45.1395   99.1660  20250605  10.0  4.0  C/2024 L1 (PANSTARRS)                                    MPEC 2025-J08
    CK24L020  2025 06 12.8346  8.326292  0.982346  345.6196  266.2859  139.4875  20250605   7.5  3.2  C/2024 L2 (PANSTARRS)                                    MPEC 2024-P23
    CK24L030  2023 11 24.1796  6.857970  1.003911   59.0778  294.9946  111.5923  20250605   9.5  4.0  C/2024 L3 (PANSTARRS)                                    MPEC 2024-RQ6
    PK24L040  2024 04 14.3028  0.671894  0.698441   53.6945  139.7797   10.0468  20250605  21.5  4.0  P/2024 L4 (Rankin)                                       MPC182882
    CK24L050  2025 03 10.3957  3.432417  1.037149  290.5150  139.1771  166.5730  20250605   9.0  4.0  C/2024 L5 (ATLAS)                                        MPEC 2025-J92
    CK24M010  2024 11 19.9982  1.703231  0.942865  345.5849   76.2147   73.7096  20250605  12.0  4.0  C/2024 M1 (ATLAS)                                        MPEC 2025-J72
    CK24N010  2025 10 18.9207  4.398082  1.000756   91.2576  323.0176   88.7770  20250605  10.5  4.0  C/2024 N1 (PANSTARRS)                                    MPEC 2024-RQ6
    CK24N030  2025 04 11.4357  5.014571  1.001346   86.8849   82.6088   88.7289  20250605   8.0  4.0  C/2024 N3 (Sarneczky)                                    MPEC 2025-J92
    CK24N040  2025 01 10.1626  5.397755  1.004395  116.7020  339.6579   49.7738  20250605   7.5  4.0  C/2024 N4 (Sarneczky)                                    MPEC 2025-J72
    CK24O010  2023 01 28.5667  6.606937  1.000685  349.8912  303.3411   59.0787  20250605   8.5  4.0  C/2024 O1 (PANSTARRS)                                    MPEC 2024-PC5
    PK24O020  2024 04 20.1617  3.697667  0.499120  310.7859    6.8055   28.9766  20250605  12.0  4.0  P/2024 O2 (PANSTARRS)                                    MPEC 2024-UA9
    PK24O02C  2024 10  9.3168  0.592870  0.774187  258.5377  136.6170    7.6713  20250605  20.5  4.0  P/2024 OC2 (PANSTARRS)                                   MPEC 2025-A40
    CK24P07N  2024 12  6.4353  1.524564  0.977351   74.2736  358.5841  101.2096  20250605  15.2  4.0  C/2024 PN7 (PANSTARRS)                                   MPEC 2025-J08
    PK24Q010  2024 06 14.6297  1.637463  0.534879  284.5020   23.1201    5.0126  20250605  17.0  4.0  P/2024 Q1 (PANSTARRS)                                    MPEC 2024-UQ8
    CK24Q030  2025 03  5.2201  2.091554  1.001498   70.1278  337.2871  121.3783  20250605  15.0  4.0  C/2024 Q3 (PANSTARRS)                                    MPEC 2025-J08
    CK24Q040  2024 11 12.1974  5.419049  0.992378  133.0468  324.2758    3.3145  20250605  10.0  4.0  C/2024 Q4 (PANSTARRS)                                    MPC182882
    PK24R010  2024 06 15.8285  1.750878  0.493108  230.6701   84.9823   12.7362  20250605  18.0  4.0  P/2024 R1 (PANSTARRS)                                    MPEC 2024-TP3
    PK24R020  2024 10  1.7626  2.303160  0.268695  203.9427  193.0164   15.1155  20250605  15.5  4.0  P/2024 R2 (PANSTARRS)                                    MPC182883
    PK24R030  2024 05  8.3290  2.345709  0.267194  309.2820   33.2514   14.7196  20250605  15.0  4.0  P/2024 R3 (PANSTARRS)                                    MPEC 2024-YC7
    CK24R040  2027 10 26.6102  4.409104  1.002655  108.9914  345.9343   95.3610  20250605   6.5  4.0  C/2024 R4 (PANSTARRS)                                    MPEC 2025-J92
    CK24S010  2024 10 28.4814  0.007982  0.999909   69.4465  347.4951  141.9982  20250605  15.5  4.0  C/2024 S1 (ATLAS)                                        MPC182883
    PK24S020  2024 09 16.3036  2.047681  0.593611   49.1697    8.3393    7.5256  20250605  15.0  4.0  P/2024 S2 (Rankin)                                       MPEC 2025-A40
    PK24T010  2024 09 30.3929  2.287001  0.653460  164.8649  279.7109   17.6202  20250605  14.5  4.0  P/2024 T1 (Rankin)                                       MPC182883
    PK24T020  2024 12  8.3297  1.972292  0.680431  343.8267  113.0615   12.9290  20250605  16.0  4.0  P/2024 T2 (Rankin)                                       MPEC 2025-J72
    CK24T030  2025 03 15.2404  3.716173  0.956833  336.8866   74.8331   53.4770  20250605  11.5  4.0  C/2024 T3 (PANSTARRS)                                    MPC182883
    CK24T050  2027 05  6.3477  3.842079  1.001945  352.4365  100.6819   52.3871  20250605   5.5  4.0  C/2024 T5 (ATLAS)                                        MPC182883
    CK24U010  2024 06 30.4361  4.836137  0.990117  188.0801  270.2639  128.7552  20250605  10.0  4.0  C/2024 U1 (PANSTARRS)                                    MPC182883
    AK24U020  2026 01 14.3683  8.180894  1.003412   29.7690   56.0699  120.6712  20250605  12.1  2.0  A/2024 U2                                                MPC182883
    CK24V010  2025 04  4.1126  2.318467  0.990061  168.6681  328.1946   54.6256  20250605  14.8  4.0  C/2024 V1 (Borisov)                                      MPEC 2025-J72
    CK24V020  2024 11  3.8244  1.243047  0.968360   13.7224  102.2019   95.9718  20250605  19.0  4.0  C/2024 V2 (Sarneczky)                                    MPEC 2024-YC7
    CK24W010  2025 03 19.1030  2.560721  0.942927  256.7385  310.7275   83.2004  20250605  15.0  4.0  C/2024 W1 (PANSTARRS)                                    MPC182883
